[
    {
        "Altitude(m)": 607895.8439971405,
        "Argument of Periapsis(deg)": 0.0,
        "Eccentricity": 0.0,
        "Inclination(deg)": 60.0,
        "Latitude(deg)": 40.99841167545481,
        "Longitude(deg)": 45.08857804688141,
        "Mean Anomaly(deg)": -229.09089999999995,
        "RAAN(deg)": 355.0,
        "Satellite Name": "Test1 1570",
        "Satellite Number": 1570,
        "Semi-Major Axis(m)": 6980739.136638005,
        "Time(s)": 0
    },
    {
        "Altitude(m)": 607795.1570239739,
        "Argument of Periapsis(deg)": 0.00010418945913296404,
        "Eccentricity": 0.0,
        "Inclination(deg)": 60.0,
        "Latitude(deg)": 40.53073661693947,
        "Longitude(deg)": 45.58517352040815,
        "Mean Anomaly(deg)": -228.4707938545382,
        "RAAN(deg)": 354.99957995086027,
        "Satellite Name": "Test1 1570",
        "Satellite Number": 1570,
        "Semi-Major Axis(m)": 6980739.136638005,
        "Time(s)": 10
    }
]